NORAD_CAT_ID,OBJECT_NAME,OBJECT_TYPE,EPOCH,MEAN_MOTION,ECCENTRICITY,INCLINATION,RA_OF_ASC_NODE,ARG_OF_PERICENTER,MEAN_ANOMALY,BSTAR,MEAN_MOTION_DOT,MEAN_MOTION_DDOT,TLE_LINE0,TLE_LINE1,TLE_LINE2,SEMIMAJOR_AXIS,PERIOD,APOGEE,PERIGEE,DECAYED
55652.0,STARLINK-5487,PAYLOAD,2023-10-01 09:11:26,14.983308,0.0002987,69.9991,269.1684,268.378,91.7037,-2.1983e-05,-3.55e-06,0.0,0 STARLINK-5487,1 55652U 23021AA  23274.38294031 -.00000355  00000-0 -21983-4 0  9991,2 55652  69.9991 269.1684 0002987 268.3780  91.7037 14.98330800 35139,6950.19,96.107,574.131,569.979,0.0
55652.0,STARLINK-5487,PAYLOAD,2023-10-01 17:12:06,14.98328646,0.0003066,69.9988,268.3263,270.07,90.0108,-3.9342e-05,-5.62e-06,0.0,0 STARLINK-5487,1 55652U 23021AA  23274.71674170 -.00000562  00000-0 -39342-4 0  9992,2 55652  69.9988 268.3263 0003066 270.0700  90.0108 14.98328646 35484,6950.197,96.107,574.193,569.931,0.0
55652.0,STARLINK-5487,PAYLOAD,2023-10-02 09:13:27,14.98327839,0.0003046,69.9988,266.643,269.8002,90.2808,-5.4538e-05,-7.44e-06,0.0,0 STARLINK-5487,1 55652U 23021AA  23275.38434360 -.00000744  00000-0 -54538-4 0  9997,2 55652  69.9988 266.6430 0003046 269.8002  90.2808 14.98327839 35280,6950.2,96.107,574.182,569.948,0.0
55652.0,STARLINK-5487,PAYLOAD,2023-10-02 17:14:07,14.98328894,0.0003063,69.9987,265.801,269.8349,90.2459,-2.0143e-05,-3.33e-06,0.0,0 STARLINK-5487,1 55652U 23021AA  23275.71814222 -.00000333  00000-0 -20143-4 0  9992,2 55652  69.9987 265.8010 0003063 269.8349  90.2459 14.98328894 35630,6950.196,96.107,574.19,569.932,0.0
55652.0,STARLINK-5487,PAYLOAD,2023-10-03 09:15:27,14.98334307,0.0003086,69.9986,264.1176,269.781,90.2995,4.8967e-05,4.91e-06,0.0,0 STARLINK-5487,1 55652U 23021AA  23276.38573693  .00000491  00000-0  48967-4 0  9997,2 55652  69.9986 264.1176 0003086 269.7810  90.2995 14.98334307 35430,6950.18,96.107,574.189,569.9,0.0
55652.0,STARLINK-5487,PAYLOAD,2023-10-04 09:17:28,14.98331199,0.0002974,69.999,261.5921,269.1688,90.913,7.0705e-05,7.51e-06,0.0,0 STARLINK-5487,1 55652U 23021AA  23277.38713862  .00000751  00000-0  70705-4 0  9996,2 55652  69.9990 261.5921 0002974 269.1688  90.9130 14.98331199 35586,6950.189,96.107,574.121,569.987,0.0
55652.0,STARLINK-5487,PAYLOAD,2023-10-05 09:19:29,14.98334967,0.0002746,69.9997,259.0678,271.3866,88.6979,3.8522e-05,3.67e-06,0.0,0 STARLINK-5487,1 55652U 23021AA  23278.38853659  .00000367  00000-0  38522-4 0  9990,2 55652  69.9997 259.0678 0002746 271.3866  88.6979 14.98334967 35732,6950.178,96.107,573.951,570.134,0.0
55652.0,STARLINK-5487,PAYLOAD,2023-10-05 15:44:01,14.98333123,0.0002694,69.9998,258.3943,271.2661,88.8189,-4.4221e-06,-1.46e-06,0.0,0 STARLINK-5487,1 55652U 23021AA  23278.65557823 -.00000146  00000-0 -44221-5 0  9995,2 55652  69.9998 258.3943 0002694 271.2661  88.8189 14.98333123 36070,6950.183,96.107,573.921,570.176,0.0
55652.0,STARLINK-5487,PAYLOAD,2023-10-06 09:21:30,14.98330883,0.0002754,69.9998,256.5433,265.3402,94.7442,-1.0897e-05,-2.23e-06,0.0,0 STARLINK-5487,1 55652U 23021AA  23279.38993836 -.00000223  00000-0 -10897-4 0  9991,2 55652  69.9998 256.5433 0002754 265.3402  94.7442 14.98330883 35884,6950.19,96.107,573.969,570.141,0.0
55652.0,STARLINK-5487,PAYLOAD,2023-10-06 15:46:03,14.98328855,0.0002751,69.9998,255.8695,270.4696,89.6148,-2.504e-05,-3.92e-06,0.0,0 STARLINK-5487,1 55652U 23021AA  23279.65698023 -.00000392  00000-0 -25040-4 0  9994,2 55652  69.9998 255.8695 0002751 270.4696  89.6148 14.98328855 36226,6950.196,96.107,573.973,570.149,0.0
55652.0,STARLINK-5487,PAYLOAD,2023-10-07 01:22:51,14.98328526,0.000282,69.9997,254.8597,269.7573,90.3262,-4.2904e-05,-6.05e-06,0.0,0 STARLINK-5487,1 55652U 23021AA  23280.05754084 -.00000605  00000-0 -42904-4 0  9995,2 55652  69.9997 254.8597 0002820 269.7573  90.3262 14.98328526 36284,6950.197,96.107,574.022,570.102,0.0
55652.0,STARLINK-5487,PAYLOAD,2023-10-07 15:48:04,14.98330124,0.0002836,69.9998,253.3441,271.796,88.2874,-4.0299e-05,-5.74e-06,0.0,0 STARLINK-5487,1 55652U 23021AA  23280.65838004 -.00000574  00000-0 -40299-4 0  9996,2 55652  69.9998 253.3441 0002836 271.7960  88.2874 14.98330124 36076,6950.193,96.107,574.029,570.086,0.0
55652.0,STARLINK-5487,PAYLOAD,2023-10-07 22:12:36,14.98328357,0.0002899,69.9995,252.6707,271.4779,88.6048,1.267e-05,5.8e-07,0.0,0 STARLINK-5487,1 55652U 23021AA  23280.92541952  .00000058  00000-0  12670-4 0  9996,2 55652  69.9995 252.6707 0002899 271.4779  88.6048 14.98328357 36414,6950.198,96.107,574.078,570.048,0.0
55652.0,STARLINK-5487,PAYLOAD,2023-10-08 07:49:24,14.98332161,0.0003025,69.9994,251.661,268.1084,91.9729,3.1297e-05,2.8e-06,0.0,0 STARLINK-5487,1 55652U 23021AA  23281.32597634  .00000280  00000-0  31297-4 0  9992,2 55652  69.9994 251.6610 0003025 268.1084  91.9729 14.98332161 36476,6950.186,96.107,574.154,569.949,0.0
55652.0,STARLINK-5487,PAYLOAD,2023-10-08 15:50:04,14.98344505,0.0003077,69.9995,250.8195,262.4093,97.6717,-0.00014128,-1.779e-05,0.0,0 STARLINK-5487,1 55652U 23021AA  23281.65977095 -.00001779  00000-0 -14128-3 0  9990,2 55652  69.9995 250.8195 0003077 262.4093  97.6717 14.98344505 36228,6950.148,96.106,574.152,569.874,0.0
55652.0,STARLINK-5487,PAYLOAD,2023-10-09 03:03:01,14.98329539,0.0002932,70.0001,249.641,269.2397,90.8426,7.5757e-05,8.11e-06,0.0,0 STARLINK-5487,1 55652U 23021AA  23282.12709640  .00000811  00000-0  75757-4 0  9992,2 55652  70.0001 249.6410 0002932 269.2397  90.8426 14.98329539 36295,6950.194,96.107,574.097,570.022,0.0
55652.0,STARLINK-5487,PAYLOAD,2023-10-09 07:51:25,14.98332158,0.0002545,70.0002,249.1363,260.9259,99.1613,0.00011194,1.243e-05,0.0,0 STARLINK-5487,1 55652U 23021AA  23282.32737356  .00001243  00000-0  11194-3 0  9993,2 55652  70.0002 249.1363 0002545 260.9259  99.1613 14.98332158 36621,6950.186,96.107,573.82,570.282,0.0
55652.0,STARLINK-5487,PAYLOAD,2023-10-09 22:16:38,14.983284,0.000271,70.0006,247.6227,270.545,89.5398,2.6136e-05,2.19e-06,0.0,0 STARLINK-5487,1 55652U 23021AA  23282.92821760  .00000219  00000-0  26136-4 0  9997,2 55652  70.0006 247.6227 0002710 270.5450  89.5398 14.98328400 36719,6950.198,96.107,573.946,570.179,0.0
55652.0,STARLINK-5487,PAYLOAD,2023-10-10 03:05:02,14.98327112,0.0002718,70.0004,247.1175,270.9114,89.1733,-8.0895e-07,-1.03e-06,0.0,0 STARLINK-5487,1 55652U 23021AA  23283.12849927 -.00000103  00000-0 -80895-6 0  9993,2 55652  70.0004 247.1175 0002718 270.9114  89.1733 14.98327112 36441,6950.202,96.107,573.956,570.178,0.0
55652.0,STARLINK-5487,PAYLOAD,2023-10-10 07:53:26,14.98330604,0.0002645,70.0007,246.6129,268.9398,91.1458,8.3125e-06,6e-08,0.0,0 STARLINK-5487,1 55652U 23021AA  23283.32877681  .00000006  00000-0  83125-5 0  9991,2 55652  70.0007 246.6129 0002645 268.9398  91.1458 14.98330604 36770,6950.191,96.107,573.894,570.218,0.0
55652.0,STARLINK-5487,PAYLOAD,2023-10-10 22:18:39,14.98346552,0.0002197,70.0009,245.0985,269.8956,90.1952,-0.00040149,-4.882e-05,0.0,0 STARLINK-5487,1 55652U 23021AA  23283.92961893 -.00004882  00000-0 -40149-3 0  9991,2 55652  70.0009 245.0985 0002197 269.8956  90.1952 14.98346552 36864,6950.142,96.106,573.534,570.48,0.0
55652.0,STARLINK-5487,PAYLOAD,2023-10-11 03:07:03,14.98338196,0.0002006,70.001,244.5936,265.7213,94.3717,-0.00025398,-3.122e-05,0.0,0 STARLINK-5487,1 55652U 23021AA  23284.12989964 -.00003122  00000-0 -25398-3 0  9998,2 55652  70.0010 244.5936 0002006 265.7213  94.3717 14.98338196 36596,6950.168,96.106,573.427,570.638,0.0
55652.0,STARLINK-5487,PAYLOAD,2023-10-11 07:55:29,14.98254627,0.0002222,70.001,244.0879,268.2033,91.8872,0.0011729,0.00013902,0.0,0 STARLINK-5487,1 55652U 23021AA  23284.33020041  .00013902  00000-0  11729-2 0  9990,2 55652  70.0010 244.0879 0002222 268.2033  91.8872 14.98254627 36629,6950.426,96.112,573.835,570.747,0.0
55652.0,STARLINK-5487,PAYLOAD,2023-10-12 04:45:12,14.98329515,0.0002544,70.0005,241.8999,258.5517,101.5356,5.5256e-05,5.66e-06,0.0,0 STARLINK-5487,1 55652U 23021AA  23285.19805683  .00000566  00000-0  55256-4 0  9995,2 55652  70.0005 241.8999 0002544 258.5517 101.5356 14.98329515 36756,6950.194,96.107,573.828,570.291,0.0
55652.0,STARLINK-5487,PAYLOAD,2023-10-12 07:57:27,14.98333731,0.0002659,70.0003,241.5624,262.6065,97.4792,0.00010263,1.132e-05,0.0,0 STARLINK-5487,1 55652U 23021AA  23285.33157267  .00001132  00000-0  10263-3 0  9997,2 55652  70.0003 241.5624 0002659 262.6065  97.4792 14.98333731 37075,6950.181,96.107,573.894,570.198,0.0
55652.0,STARLINK-5487,PAYLOAD,2023-10-12 22:22:41,14.98325343,0.0002567,70.0008,240.0471,267.5521,92.5344,3.6341e-05,3.41e-06,0.0,0 STARLINK-5487,1 55652U 23021AA  23285.93242007  .00000341  00000-0  36341-4 0  9997,2 55652  70.0008 240.0471 0002567 267.5521  92.5344 14.98325343 37162,6950.207,96.107,573.856,570.288,0.0
55652.0,STARLINK-5487,PAYLOAD,2023-10-13 04:47:13,14.98328748,0.0002732,69.9999,239.3739,265.0249,95.0598,3.2101e-05,2.9e-06,0.0,0 STARLINK-5487,1 55652U 23021AA  23286.19945812  .00000290  00000-0  32101-4 0  9993,2 55652  69.9999 239.3739 0002732 265.0249  95.0598 14.98328748 36902,6950.197,96.107,573.961,570.163,0.0
55652.0,STARLINK-5487,PAYLOAD,2023-10-13 06:23:20,14.98333812,0.0002826,70.0001,239.2062,264.7757,95.308,8.3697e-05,9.06e-06,0.0,0 STARLINK-5487,1 55652U 23021AA  23286.26621368  .00000906  00000-0  83697-4 0  9998,2 55652  70.0001 239.2062 0002826 264.7757  95.3080 14.98333812 37213,6950.181,96.107,574.01,570.082,0.0
55652.0,STARLINK-5487,PAYLOAD,2023-10-13 20:48:33,14.98334938,0.0002477,70.0003,237.6911,266.9241,93.1634,3.7843e-05,3.59e-06,0.0,0 STARLINK-5487,1 55652U 23021AA  23286.86705392  .00000359  00000-0  37843-4 0  9998,2 55652  70.0003 237.6911 0002477 266.9241  93.1634 14.98334938 37305,6950.178,96.107,573.764,570.321,0.0
55652.0,STARLINK-5487,PAYLOAD,2023-10-14 04:49:13,14.98343017,0.0002917,69.9998,236.8493,268.6132,91.4692,8.4345e-05,9.14e-06,0.0,0 STARLINK-5487,1 55652U 23021AA  23287.20084575  .00000914  00000-0  84345-4 0  9996,2 55652  69.9998 236.8493 0002917 268.6132  91.4692 14.98343017 37053,6950.153,96.106,574.045,569.99,0.0
